GLOBALSTAR M075         
1 37192U 10054E   24324.82159743 -.00000109  00000+0 -27836-4 0  9997
2 37192  51.9938  99.0067 0000791 104.3717  49.3360 12.62269062649404
GLOBALSTAR M073         
1 37193U 10054F   24325.19846663 -.00000086  00000+0  96791-4 0  9992
2 37193  52.0084  11.5206 0000308 138.0633 288.9645 12.62272734651497
GLOBALSTAR M083         
1 37739U 11033A   24324.44122056 -.00000095  00000+0  47925-4 0  9991
2 37739  51.9870 322.8447 0000458  93.5309  70.8310 12.62267960620364
GLOBALSTAR M088         
1 37740U 11033B   24325.20590604 -.00000069  00000+0  19626-3 0  9993
2 37740  51.9728 226.1819 0000926  76.4536  85.1930 12.62265283616299
GLOBALSTAR M091         
1 37741U 11033C   24324.71832385 -.00000085  00000+0  10202-3 0  9993
2 37741  51.9979 190.8504 0001242  91.6938 311.8026 12.62270812616731
GLOBALSTAR M085         
1 37742U 11033D   24324.88487429 -.00000108  00000+0 -22596-4 0  9994
2 37742  51.9835 141.5636 0001253 103.2079  38.7325 12.62269511617260
GLOBALSTAR M081         
1 37743U 11033E   24324.90166484 -.00000047  00000+0  31670-3 0  9996
2 37743  51.9931 144.1704 0001032 113.3983 344.7395 12.62273703617416
GLOBALSTAR M089         
1 37744U 11033F   24324.79397744 -.00000115  00000+0 -63589-4 0  9991
2 37744  51.9919  98.7650 0000556 113.0241  34.6638 12.62272412618244
